NORAD_CAT_ID,OBJECT_NAME,OBJECT_TYPE,EPOCH,MEAN_MOTION,ECCENTRICITY,INCLINATION,RA_OF_ASC_NODE,ARG_OF_PERICENTER,MEAN_ANOMALY,BSTAR,MEAN_MOTION_DOT,MEAN_MOTION_DDOT,TLE_LINE0,TLE_LINE1,TLE_LINE2,SEMIMAJOR_AXIS,PERIOD,APOGEE,PERIGEE,DECAYED
50817.0,STARLINK-3341,PAYLOAD,2022-08-21 06:18:50,15.0883168,0.0002077,53.2174,229.0052,52.8669,307.2512,-7.0631e-07,-2.99e-06,0.0,0 STARLINK-3341,1 50817U 22001Q   22233.26307976 -.00000299  00000-0 -70631-6 0  9993,2 50817  53.2174 229.0052 0002077  52.8669 307.2512 15.08831680 34699,6917.906,95.438,541.2080000000002,538.3340000000002,0.0
50817.0,STARLINK-3341,PAYLOAD,2022-08-22 09:20:23,15.08837524,0.0002119,53.2176,223.9505,52.5514,307.5671,-3.5888e-05,-8.59e-06,0.0,0 STARLINK-3341,1 50817U 22001Q   22234.38916047 -.00000859  00000-0 -35888-4 0  9997,2 50817  53.2176 223.9505 0002119  52.5514 307.5671 15.08837524 34861,6917.888000000001,95.438,541.219,538.2869999999998,0.0
50817.0,STARLINK-3341,PAYLOAD,2022-08-23 07:35:47,15.08833995,0.0002134999999999,53.2172,219.7876,50.6697,309.4484,9.4254e-05,1.212e-05,0.0,0 STARLINK-3341,1 50817U 22001Q   22235.31652002  .00001212  00000-0  94254-4 0  9993,2 50817  53.2172 219.7876 0002135  50.6697 309.4484 15.08833995 35008,6917.899,95.438,541.241,538.2869999999998,0.0
50817.0,STARLINK-3341,PAYLOAD,2022-08-23 15:32:42,15.08836201,0.0002159,53.2174,218.3008,51.0657,309.0528,8.0437e-05,9.92e-06,0.0,0 STARLINK-3341,1 50817U 22001Q   22235.64771941  .00000992  00000-0  80437-4 0  9995,2 50817  53.2174 218.3008 0002159  51.0657 309.0528 15.08836201 36301,6917.892,95.438,541.251,538.263,0.0
50817.0,STARLINK-3341,PAYLOAD,2022-08-24 09:01:57,15.08841871,0.0002198,53.2174,215.0298,52.5095,307.6097,8.6448e-05,1.088e-05,0.0,0 STARLINK-3341,1 50817U 22001Q   22236.37635643  .00001088  00000-0  86448-4 0  9999,2 50817  53.2174 215.0298 0002198  52.5095 307.6097 15.08841871 35168,6917.875,95.437,541.26,538.219,0.0
50817.0,STARLINK-3341,PAYLOAD,2022-08-25 04:06:35,15.08836047,0.000223,53.2178,211.4613,53.1933,306.9264,-1.538e-05,-5.33e-06,0.0,0 STARLINK-3341,1 50817U 22001Q   22237.17124346 -.00000533  00000-0 -15380-4 0  9994,2 50817  53.2178 211.4613 0002230  53.1933 306.9264 15.08836047 36537,6917.892,95.438,541.3,538.215,0.0
50817.0,STARLINK-3341,PAYLOAD,2022-08-25 07:17:21,15.08833783,0.0002226,53.2174,210.8667,52.2985,307.8209,-3.5618000000000004e-05,-8.55e-06,0.0,0 STARLINK-3341,1 50817U 22001Q   22237.30372578 -.00000855  00000-0 -35618-4 0  9994,2 50817  53.2174 210.8667 0002226  52.2985 307.8209 15.08833783 35304,6917.899,95.438,541.304,538.224,0.0
50817.0,STARLINK-3341,PAYLOAD,2022-08-26 08:43:32,15.08837648,0.0002279999999999,53.2175,206.1089,53.1671,306.953,-2.9959e-05,-7.65e-06,0.0,0 STARLINK-3341,1 50817U 22001Q   22238.36356555 -.00000765  00000-0 -29959-4 0  9999,2 50817  53.2175 206.1089 0002280  53.1671 306.9530 15.08837648 35461,6917.888000000001,95.438,541.33,538.175,0.0
50817.0,STARLINK-3341,PAYLOAD,2022-08-26 15:05:04,15.08838581,0.0002271,53.2176,204.9193,53.6667,306.4534,-6.3288e-06,-3.89e-06,0.0,0 STARLINK-3341,1 50817U 22001Q   22238.62852439 -.00000389  00000-0 -63288-5 0  9996,2 50817  53.2176 204.9193 0002271  53.6667 306.4534 15.08838581 35505,6917.885,95.438,541.321,538.179,0.0
50817.0,STARLINK-3341,PAYLOAD,2022-08-27 06:58:55,15.08837623,0.0002311,53.2175,201.9462,54.374,305.7467,9.464e-05,1.218e-05,0.0,0 STARLINK-3341,1 50817U 22001Q   22239.29092297  .00001218  00000-0  94640-4 0  9993,2 50817  53.2175 201.9462 0002311  54.3740 305.7467 15.08837623 35609,6917.888000000001,95.438,541.351,538.154,0.0
50817.0,STARLINK-3341,PAYLOAD,2022-08-27 21:17:23,15.08843932,0.0002319999999999,53.2178,199.269,56.4403,303.681,9.0858e-05,1.158e-05,0.0,0 STARLINK-3341,1 50817U 22001Q   22239.88707952  .00001158  00000-0  90858-4 0  9999,2 50817  53.2178 199.2690 0002320  56.4403 303.6810 15.08843932 35691,6917.868,95.437,541.3380000000002,538.128,0.0
50817.0,STARLINK-3341,PAYLOAD,2022-08-28 03:38:55,15.08847347,0.0002353,53.2177,198.0803,56.1049,304.0167,0.00011338,1.517e-05,0.0,0 STARLINK-3341,1 50817U 22001Q   22240.15203596  .00001517  00000-0  11338-3 0  9990,2 50817  53.2177 198.0803 0002353  56.1049 304.0167 15.08847347 36989,6917.858,95.437,541.351,538.095,0.0
50817.0,STARLINK-3341,PAYLOAD,2022-08-28 06:49:42,15.08847683,0.0002379,53.2177,197.4858,56.0222,304.0996,0.00011364,1.521e-05,0.0,0 STARLINK-3341,1 50817U 22001Q   22240.28451546  .00001521  00000-0  11364-3 0  9998,2 50817  53.2177 197.4858 0002379  56.0222 304.0996 15.08847683 35759,6917.857,95.437,541.368,538.076,0.0
50817.0,STARLINK-3341,PAYLOAD,2022-08-28 14:46:38,15.088383,0.0002381999999999,53.2174,195.9989,55.6991,304.4227,2.259800000000001e-05,7.1e-07,0.0,0 STARLINK-3341,1 50817U 22001Q   22240.61572402  .00000071  00000-0  22598-4 0  9991,2 50817  53.2174 195.9989 0002382  55.6991 304.4227 15.08838300 37058,6917.886,95.438,541.398,538.1030000000002,0.0
50817.0,STARLINK-3341,PAYLOAD,2022-08-29 03:29:43,15.08842266,0.0002322,53.2178,193.6188,58.7812,301.3408,3.0715e-05,2.01e-06,0.0,0 STARLINK-3341,1 50817U 22001Q   22241.14564058  .00000201  00000-0  30715-4 0  9993,2 50817  53.2178 193.6188 0002322  58.7812 301.3408 15.08842266 35880,6917.873000000001,95.437,541.345,538.132,0.0
50817.0,STARLINK-3341,PAYLOAD,2022-08-30 04:55:54,15.08837277,0.0002389,53.2167,188.8619,57.9205,302.2019,-6.814600000000001e-05,-1.373e-05,0.0,0 STARLINK-3341,1 50817U 22001Q   22242.20548636 -.00001373  00000-0 -68146-4 0  9997,2 50817  53.2167 188.8619 0002389  57.9205 302.2019 15.08837277 37294,6917.889,95.438,541.406,538.101,0.0
50817.0,STARLINK-3341,PAYLOAD,2022-08-30 06:31:17,15.08835644,0.0002381,53.2169,188.5647,57.7416,302.3807,-7.9591e-05,-1.555e-05,0.0,0 STARLINK-3341,1 50817U 22001Q   22242.27172790 -.00001555  00000-0 -79591-4 0  9996,2 50817  53.2169 188.5647 0002381  57.7416 302.3807 15.08835644 36053,6917.894,95.438,541.406,538.112,0.0
50817.0,STARLINK-3341,PAYLOAD,2022-08-31 04:46:41,15.08832635,0.0002226,53.2173,184.402,54.9781,305.1419,-2.9149e-05,-7.52e-06,0.0,0 STARLINK-3341,1 50817U 22001Q   22243.19908955 -.00000752  00000-0 -29149-4 0  9990,2 50817  53.2173 184.4020 0002226  54.9781 305.1419 15.08832635 36192,6917.903,95.438,541.308,538.2280000000002,0.0
50817.0,STARLINK-3341,PAYLOAD,2022-09-01 04:37:28,15.08830863,0.0002413,53.2188,179.9427,60.9949,299.1285,3.1748e-05,2.17e-06,0.0,0 STARLINK-3341,1 50817U 22001Q   22244.19269584  .00000217  00000-0  31748-4 0  9991,2 50817  53.2188 179.9427 0002413  60.9949 299.1285 15.08830863 37598,6917.908,95.438,541.443,538.104,0.0
50817.0,STARLINK-3341,PAYLOAD,2022-09-01 12:34:24,15.08836331,0.0002411999999999,53.2187,178.455,59.8013,300.3217,8.456200000000001e-05,1.058e-05,0.0,0 STARLINK-3341,1 50817U 22001Q   22244.52389297  .00001058  00000-0  84562-4 0  9998,2 50817  53.2187 178.4550 0002412  59.8013 300.3217 15.08836331 36399,6917.892,95.438,541.425,538.0880000000002,0.0
50817.0,STARLINK-3341,PAYLOAD,2022-09-01 20:31:19,15.08835698,0.0002253,53.2179,176.9687,58.8878,301.2335,0.00012771,1.745e-05,0.0,0 STARLINK-3341,1 50817U 22001Q   22244.85509031  .00001745  00000-0  12771-3 0  9999,2 50817  53.2179 176.9687 0002253  58.8878 301.2335 15.08835698 36447,6917.894,95.438,541.317,538.2,0.0
50817.0,STARLINK-3341,PAYLOAD,2022-09-02 12:25:11,15.08835243,0.0002079,53.2178,173.9952,67.6562,292.4651,9.7255e-05,1.26e-05,0.0,0 STARLINK-3341,1 50817U 22001Q   22245.51749356  .00001260  00000-0  97255-4 0  9992,2 50817  53.2178 173.9952 0002079  67.6562 292.4651 15.08835243 36541,6917.895,95.438,541.198,538.322,0.0
50817.0,STARLINK-3341,PAYLOAD,2022-09-03 04:19:02,15.08840862,0.0002313,53.2176,171.0215,63.6131,296.5098,5.4892e-05,5.85e-06,0.0,0 STARLINK-3341,1 50817U 22001Q   22246.17989368  .00000585  00000-0  54892-4 0  9993,2 50817  53.2176 171.0215 0002313  63.6131 296.5098 15.08840862 36643,6917.878000000002,95.438,541.3430000000002,538.143,0.0
50817.0,STARLINK-3341,PAYLOAD,2022-09-04 04:09:48,15.08851077,0.000233,53.2181,166.5608,61.8547,298.2681,3.0937e-05,2.04e-06,0.0,0 STARLINK-3341,1 50817U 22001Q   22247.17348150  .00000204  00000-0  30937-4 0  9994,2 50817  53.2181 166.5608 0002330  61.8547 298.2681 15.08851077 38047,6917.847,95.437,541.323,538.1,0.0
50817.0,STARLINK-3341,PAYLOAD,2022-09-04 12:06:44,15.08848068,0.0002315,53.2183,165.0737,63.5448,296.5781,2.8058e-05,1.58e-06,0.0,0 STARLINK-3341,1 50817U 22001Q   22247.50468247  .00000158  00000-0  28058-4 0  9990,2 50817  53.2183 165.0737 0002315  63.5448 296.5781 15.08848068 36842,6917.856,95.437,541.322,538.119,0.0
50817.0,STARLINK-3341,PAYLOAD,2022-09-04 18:28:17,15.08839352,0.0002826,53.218,163.8842,68.7327,291.3967,3.6677e-05,2.95e-06,0.0,0 STARLINK-3341,1 50817U 22001Q   22247.76965012  .00000295  00000-0  36677-4 0  9998,2 50817  53.2180 163.8842 0002826  68.7327 291.3967 15.08839352 36881,6917.882,95.438,541.702,537.7919999999998,0.0
50817.0,STARLINK-3341,PAYLOAD,2022-09-05 04:00:37,15.08824962,0.0002149,53.2182,162.1032,56.7122,303.4076,-0.00013505,-2.436e-05,0.0,0 STARLINK-3341,1 50817U 22001Q   22248.16710511 -.00002436  00000-0 -13505-3 0  9990,2 50817  53.2182 162.1032 0002149  56.7122 303.4076 15.08824962 36948,6917.926,95.439,541.278,538.305,0.0
50817.0,STARLINK-3341,PAYLOAD,2022-09-06 03:51:24,15.0883576,0.0002301,53.2189,157.6405,61.2049,298.9174,-5.8125e-06,-3.81e-06,0.0,0 STARLINK-3341,1 50817U 22001Q   22249.16070139 -.00000381  00000-0 -58125-5 0  9992,2 50817  53.2189 157.6405 0002301  61.2049 298.9174 15.08835760 38348,6917.893,95.438,541.35,538.1669999999998,0.0
50817.0,STARLINK-3341,PAYLOAD,2022-09-07 00:31:26,15.08822561,0.0001938,53.2191,153.7749,63.8032,296.3159,0.00013709,1.893e-05,0.0,0 STARLINK-3341,1 50817U 22001Q   22250.02183016  .00001893  00000-0  13709-3 0  9992,2 50817  53.2191 153.7749 0001938  63.8032 296.3159 15.08822561 38478,6917.934,95.439,541.139,538.4580000000002,0.0
